{
  "type": "FeatureCollection",
  "features": [
    {
      "type": "Feature",
      "properties": {
        "norad_id": 28890,
        "name": "BEIJING 1",
        "group": "dmc",
        "lat": -29.17232215134796,
        "lon": 111.04319969739255,
        "alt_km": 698.4532923561464,
        "timestamp": "2025-12-04T21:36:15.541092+00:00",
        "meta_object_name": "BEIJING 1",
        "meta_object_id": "2005-043A",
        "meta_epoch": "2025-12-04T15:10:30.349344",
        "meta_mean_motion": 14.63354281,
        "meta_eccentricity": 0.00149153,
        "meta_inclination": 98.265,
        "meta_ra_of_asc_node": 106.1204,
        "meta_arg_of_pericenter": 165.9636,
        "meta_mean_anomaly": 194.1984,
        "meta_ephemeris_type": 0,
        "meta_classification_type": "U",
        "meta_norad_cat_id": 28890,
        "meta_element_set_no": 999,
        "meta_rev_at_epoch": 7219,
        "meta_bstar": 0.00016816058,
        "meta_mean_motion_dot": 8.21e-06,
        "meta_mean_motion_ddot": 0,
        "tle_line1": "1 28890U 05043A   25338.63229571  .00000821  00000+0  16816-3 0  9990",
        "tle_line2": "2 28890  98.2650 106.1204 0014915 165.9636 194.1984 14.63354281 72191"
      },
      "geometry": {
        "type": "Point",
        "coordinates": [
          111.04319969739255,
          -29.17232215134796
        ]
      }
    },
    {
      "type": "Feature",
      "properties": {
        "norad_id": 33320,
        "name": "HUANJING 1A (HJ-1A)",
        "group": "dmc",
        "lat": 25.147270545828075,
        "lon": 151.14551803845143,
        "alt_km": 619.4382182393829,
        "timestamp": "2025-12-04T21:36:15.541117+00:00",
        "meta_object_name": "HUANJING 1A (HJ-1A)",
        "meta_object_id": "2008-041A",
        "meta_epoch": "2025-12-04T16:03:18.589824",
        "meta_mean_motion": 14.83354487,
        "meta_eccentricity": 0.00206076,
        "meta_inclination": 97.653,
        "meta_ra_of_asc_node": 327.305,
        "meta_arg_of_pericenter": 59.5737,
        "meta_mean_anomaly": 300.7511,
        "meta_ephemeris_type": 0,
        "meta_classification_type": "U",
        "meta_norad_cat_id": 33320,
        "meta_element_set_no": 999,
        "meta_rev_at_epoch": 92956,
        "meta_bstar": 0.00042204392,
        "meta_mean_motion_dot": 3.421e-05,
        "meta_mean_motion_ddot": 0,
        "tle_line1": "1 33320U 08041A   25338.66896516  .00003421  00000+0  42204-3 0  9996",
        "tle_line2": "2 33320  97.6530 327.3050 0020607  59.5737 300.7511 14.83354487929569"
      },
      "geometry": {
        "type": "Point",
        "coordinates": [
          151.14551803845143,
          25.147270545828075
        ]
      }
    },
    {
      "type": "Feature",
      "properties": {
        "norad_id": 33321,
        "name": "HUANJING 1B (HJ-1B)",
        "group": "dmc",
        "lat": 30.62978488107644,
        "lon": -33.3139260431888,
        "alt_km": 609.4912708077327,
        "timestamp": "2025-12-04T21:36:15.541132+00:00",
        "meta_object_name": "HUANJING 1B (HJ-1B)",
        "meta_object_id": "2008-041B",
        "meta_epoch": "2025-12-04T14:59:13.465824",
        "meta_mean_motion": 14.82788477,
        "meta_eccentricity": 0.0038226,
        "meta_inclination": 97.6391,
        "meta_ra_of_asc_node": 330.9806,
        "meta_arg_of_pericenter": 101.4694,
        "meta_mean_anomaly": 259.0817,
        "meta_ephemeris_type": 0,
        "meta_classification_type": "U",
        "meta_norad_cat_id": 33321,
        "meta_element_set_no": 999,
        "meta_rev_at_epoch": 92957,
        "meta_bstar": 0.0003179133,
        "meta_mean_motion_dot": 2.552e-05,
        "meta_mean_motion_ddot": 0,
        "tle_line1": "1 33321U 08041B   25338.62446141  .00002552  00000+0  31791-3 0  9991",
        "tle_line2": "2 33321  97.6391 330.9806 0038226 101.4694 259.0817 14.82788477929574"
      },
      "geometry": {
        "type": "Point",
        "coordinates": [
          -33.3139260431888,
          30.62978488107644
        ]
      }
    },
    {
      "type": "Feature",
      "properties": {
        "norad_id": 33446,
        "name": "YAOGAN-4",
        "group": "dmc",
        "lat": -52.56909634679421,
        "lon": -80.44796185108541,
        "alt_km": 620.6110669987202,
        "timestamp": "2025-12-04T21:36:15.541144+00:00",
        "meta_object_name": "YAOGAN-4",
        "meta_object_id": "2008-061A",
        "meta_epoch": "2025-12-04T08:53:09.383136",
        "meta_mean_motion": 14.82641717,
        "meta_eccentricity": 0.0014315,
        "meta_inclination": 97.9171,
        "meta_ra_of_asc_node": 268.5523,
        "meta_arg_of_pericenter": 351.2867,
        "meta_mean_anomaly": 8.8096,
        "meta_ephemeris_type": 0,
        "meta_classification_type": "U",
        "meta_norad_cat_id": 33446,
        "meta_element_set_no": 999,
        "meta_rev_at_epoch": 91679,
        "meta_bstar": 0.00043299935,
        "meta_mean_motion_dot": 3.441e-05,
        "meta_mean_motion_ddot": 0,
        "tle_line1": "1 33446U 08061A   25338.37024749  .00003441  00000+0  43300-3 0  9996",
        "tle_line2": "2 33446  97.9171 268.5523 0014315 351.2867   8.8096 14.82641717916797"
      },
      "geometry": {
        "type": "Point",
        "coordinates": [
          -80.44796185108541,
          -52.56909634679421
        ]
      }
    },
    {
      "type": "Feature",
      "properties": {
        "norad_id": 35681,
        "name": "DEIMOS-1",
        "group": "dmc",
        "lat": -64.52686837460297,
        "lon": 156.4002033244941,
        "alt_km": 654.3556003123558,
        "timestamp": "2025-12-04T21:36:15.541155+00:00",
        "meta_object_name": "DEIMOS-1",
        "meta_object_id": "2009-041A",
        "meta_epoch": "2025-12-04T13:45:38.555424",
        "meta_mean_motion": 14.74933704,
        "meta_eccentricity": 0.00026923,
        "meta_inclination": 97.7146,
        "meta_ra_of_asc_node": 139.5573,
        "meta_arg_of_pericenter": 94.9285,
        "meta_mean_anomaly": 265.2233,
        "meta_ephemeris_type": 0,
        "meta_classification_type": "U",
        "meta_norad_cat_id": 35681,
        "meta_element_set_no": 999,
        "meta_rev_at_epoch": 87819,
        "meta_bstar": 0.0002137069,
        "meta_mean_motion_dot": 1.388e-05,
        "meta_mean_motion_ddot": 0,
        "tle_line1": "1 35681U 09041A   25338.57336291  .00001388  00000+0  21371-3 0  9990",
        "tle_line2": "2 35681  97.7146 139.5573 0002692  94.9285 265.2233 14.74933704878196"
      },
      "geometry": {
        "type": "Point",
        "coordinates": [
          156.4002033244941,
          -64.52686837460297
        ]
      }
    },
    {
      "type": "Feature",
      "properties": {
        "norad_id": 35683,
        "name": "UK-DMC 2",
        "group": "dmc",
        "lat": -68.01669609432993,
        "lon": 134.02417538912607,
        "alt_km": 651.4357105486915,
        "timestamp": "2025-12-04T21:36:15.541166+00:00",
        "meta_object_name": "UK-DMC 2",
        "meta_object_id": "2009-041C",
        "meta_epoch": "2025-12-04T15:24:31.182912",
        "meta_mean_motion": 14.75594157,
        "meta_eccentricity": 0.00013091,
        "meta_inclination": 97.8557,
        "meta_ra_of_asc_node": 113.7739,
        "meta_arg_of_pericenter": 102.5584,
        "meta_mean_anomaly": 257.5772,
        "meta_ephemeris_type": 0,
        "meta_classification_type": "U",
        "meta_norad_cat_id": 35683,
        "meta_element_set_no": 999,
        "meta_rev_at_epoch": 87787,
        "meta_bstar": 0.00029045689,
        "meta_mean_motion_dot": 1.932e-05,
        "meta_mean_motion_ddot": 0,
        "tle_line1": "1 35683U 09041C   25338.64202758  .00001932  00000+0  29046-3 0  9992",
        "tle_line2": "2 35683  97.8557 113.7739 0001309 102.5584 257.5772 14.75594157877877"
      },
      "geometry": {
        "type": "Point",
        "coordinates": [
          134.02417538912607,
          -68.01669609432993
        ]
      }
    },
    {
      "type": "Feature",
      "properties": {
        "norad_id": 40715,
        "name": "DMC3-FM1",
        "group": "dmc",
        "lat": 61.968123222479264,
        "lon": -168.28352222034155,
        "alt_km": 605.2246743816959,
        "timestamp": "2025-12-04T21:36:15.541177+00:00",
        "meta_object_name": "DMC3-FM1",
        "meta_object_id": "2015-032A",
        "meta_epoch": "2025-12-04T14:51:19.145376",
        "meta_mean_motion": 14.85418859,
        "meta_eccentricity": 0.00052307,
        "meta_inclination": 97.6698,
        "meta_ra_of_asc_node": 206.107,
        "meta_arg_of_pericenter": 350.1888,
        "meta_mean_anomaly": 9.9224,
        "meta_ephemeris_type": 0,
        "meta_classification_type": "U",
        "meta_norad_cat_id": 40715,
        "meta_element_set_no": 999,
        "meta_rev_at_epoch": 56102,
        "meta_bstar": 0.00018992026,
        "meta_mean_motion_dot": 1.585e-05,
        "meta_mean_motion_ddot": 0,
        "tle_line1": "1 40715U 15032A   25338.61897159  .00001585  00000+0  18992-3 0  9995",
        "tle_line2": "2 40715  97.6698 206.1070 0005230 350.1888   9.9224 14.85418859561026"
      },
      "geometry": {
        "type": "Point",
        "coordinates": [
          -168.28352222034155,
          61.968123222479264
        ]
      }
    },
    {
      "type": "Feature",
      "properties": {
        "norad_id": 40716,
        "name": "DMC3-FM2",
        "group": "dmc",
        "lat": -56.644583135681465,
        "lon": -140.3616710430402,
        "alt_km": 616.7669368325915,
        "timestamp": "2025-12-04T21:36:15.541188+00:00",
        "meta_object_name": "DMC3-FM2",
        "meta_object_id": "2015-032B",
        "meta_epoch": "2025-12-04T15:23:43.585152",
        "meta_mean_motion": 14.85420312,
        "meta_eccentricity": 0.00058771,
        "meta_inclination": 97.6755,
        "meta_ra_of_asc_node": 207.5668,
        "meta_arg_of_pericenter": 354.434,
        "meta_mean_anomaly": 5.6809,
        "meta_ephemeris_type": 0,
        "meta_classification_type": "U",
        "meta_norad_cat_id": 40716,
        "meta_element_set_no": 999,
        "meta_rev_at_epoch": 56102,
        "meta_bstar": 0.00019005386,
        "meta_mean_motion_dot": 1.586e-05,
        "meta_mean_motion_ddot": 0,
        "tle_line1": "1 40716U 15032B   25338.64147668  .00001586  00000+0  19005-3 0  9999",
        "tle_line2": "2 40716  97.6755 207.5668 0005877 354.4340   5.6809 14.85420312561025"
      },
      "geometry": {
        "type": "Point",
        "coordinates": [
          -140.3616710430402,
          -56.644583135681465
        ]
      }
    },
    {
      "type": "Feature",
      "properties": {
        "norad_id": 40717,
        "name": "DMC3-FM3",
        "group": "dmc",
        "lat": -7.430381503918106,
        "lon": 28.4355297747368,
        "alt_km": 619.8280789704031,
        "timestamp": "2025-12-04T21:36:15.541198+00:00",
        "meta_object_name": "DMC3-FM3",
        "meta_object_id": "2015-032C",
        "meta_epoch": "2025-12-04T14:17:47.351616",
        "meta_mean_motion": 14.85412633,
        "meta_eccentricity": 0.00052401,
        "meta_inclination": 97.681,
        "meta_ra_of_asc_node": 209.1503,
        "meta_arg_of_pericenter": 356.8062,
        "meta_mean_anomaly": 3.3119,
        "meta_ephemeris_type": 0,
        "meta_classification_type": "U",
        "meta_norad_cat_id": 40717,
        "meta_element_set_no": 999,
        "meta_rev_at_epoch": 56102,
        "meta_bstar": 0.00015258511,
        "meta_mean_motion_dot": 1.263e-05,
        "meta_mean_motion_ddot": 0,
        "tle_line1": "1 40717U 15032C   25338.59568694  .00001263  00000+0  15259-3 0  9999",
        "tle_line2": "2 40717  97.6810 209.1503 0005240 356.8062   3.3119 14.85412633561021"
      },
      "geometry": {
        "type": "Point",
        "coordinates": [
          28.4355297747368,
          -7.430381503918106
        ]
      }
    }
  ]
}